start=new Date('2023-03-01T00:00:00.000Z').valueOf();
sats=[{"FILE":"3847880","MEAN_ANOMALY":"253.8515","ECCENTRICITY":"0.00013300","BSTAR":"-0.00207760000000","EPHEMERIS_TYPE":"0","RCS_SIZE":"LARGE","CENTER_NAME":"EARTH","PERIAPSIS":"562.188","CLASSIFICATION_TYPE":"U","APOAPSIS":"564.034","ARG_OF_PERICENTER":"106.2856","MEAN_MOTION_DDOT":"0.0000000000000","LAUNCH_DATE":"2022-08-12","TIME_SYSTEM":"UTC","MEAN_MOTION_DOT":"-0.00026621","OBJECT_NAME":"STARLINK-4387","DECAY_DATE":null,"REV_AT_EPOCH":"3046","TLE_LINE1":"1 53490U 22099AB  23059.86463308 -.00026621  00000-0 -20776-2 0  9993","ELEMENT_SET_NO":"999","TLE_LINE2":"2 53490  97.6502 182.4979 0001330 106.2856 253.8515 15.01227913 30460","SEMIMAJOR_AXIS":"6941.246","MEAN_MOTION":"15.01227913","OBJECT_ID":"2022-099AB","COUNTRY_CODE":"US","NORAD_CAT_ID":"53490","EPOCH":"2023-02-28T20:45:04.298112","RA_OF_ASC_NODE":"182.4979","INCLINATION":"97.6502","MEAN_ELEMENT_THEORY":"SGP4","REF_FRAME":"TEME","GP_ID":"227276700","OBJECT_TYPE":"PAYLOAD","PERIOD":"95.921","SITE":"AFWTR"},{"SEMIMAJOR_AXIS":"6941.272","MEAN_MOTION":"15.01219449","ELEMENT_SET_NO":"999","TLE_LINE2":"2 53491  97.6506 182.5528 0001400  88.0866 272.0519 15.01219449 30475","OBJECT_NAME":"STARLINK-4450","DECAY_DATE":null,"REV_AT_EPOCH":"3047","TLE_LINE1":"1 53491U 22099AC  23059.92389118 -.00012507  00000-0 -97195-3 0  9995","LAUNCH_DATE":"2022-08-12","TIME_SYSTEM":"UTC","MEAN_MOTION_DOT":"-0.00012507","OBJECT_TYPE":"PAYLOAD","GP_ID":"227276695","PERIOD":"95.922","SITE":"AFWTR","RA_OF_ASC_NODE":"182.5528","INCLINATION":"97.6506","REF_FRAME":"TEME","MEAN_ELEMENT_THEORY":"SGP4","EPOCH":"2023-02-28T22:10:24.197952","OBJECT_ID":"2022-099AC","COUNTRY_CODE":"US","NORAD_CAT_ID":"53491","BSTAR":"-0.00097195000000","EPHEMERIS_TYPE":"0","ECCENTRICITY":"0.00014000","FILE":"3847880","MEAN_ANOMALY":"272.0519","APOAPSIS":"564.109","ARG_OF_PERICENTER":"88.0866","MEAN_MOTION_DDOT":"0.0000000000000","PERIAPSIS":"562.165","CLASSIFICATION_TYPE":"U","CENTER_NAME":"EARTH","RCS_SIZE":"LARGE"},{"EPOCH":"2023-02-28T22:16:06.005856","NORAD_CAT_ID":"53492","COUNTRY_CODE":"US","OBJECT_ID":"2022-099AD","SITE":"AFWTR","PERIOD":"95.921","GP_ID":"227276694","OBJECT_TYPE":"PAYLOAD","MEAN_ELEMENT_THEORY":"SGP4","REF_FRAME":"TEME","INCLINATION":"97.6488","RA_OF_ASC_NODE":"182.5584","TLE_LINE1":"1 53492U 22099AD  23059.92784729 -.00006309  00000-0 -48738-3 0  9995","DECAY_DATE":null,"REV_AT_EPOCH":"3047","OBJECT_NAME":"STARLINK-4451","MEAN_MOTION_DOT":"-0.00006309","TIME_SYSTEM":"UTC","LAUNCH_DATE":"2022-08-12","MEAN_MOTION":"15.01234711","SEMIMAJOR_AXIS":"6941.225","TLE_LINE2":"2 53492  97.6488 182.5584 0001860  97.9911 262.1524 15.01234711 30472","ELEMENT_SET_NO":"999","CENTER_NAME":"EARTH","RCS_SIZE":"LARGE","MEAN_MOTION_DDOT":"0.0000000000000","ARG_OF_PERICENTER":"97.9911","APOAPSIS":"564.381","CLASSIFICATION_TYPE":"U","PERIAPSIS":"561.799","ECCENTRICITY":"0.00018600","MEAN_ANOMALY":"262.1524","FILE":"3847880","EPHEMERIS_TYPE":"0","BSTAR":"-0.00048738000000"},{"CENTER_NAME":"EARTH","RCS_SIZE":"LARGE","CLASSIFICATION_TYPE":"U","PERIAPSIS":"562.220","MEAN_MOTION_DDOT":"0.0000000000000","ARG_OF_PERICENTER":"74.1986","APOAPSIS":"564.137","MEAN_ANOMALY":"285.9391","FILE":"3847880","ECCENTRICITY":"0.00013810","EPHEMERIS_TYPE":"0","BSTAR":"-0.00190250000000","NORAD_CAT_ID":"53493","COUNTRY_CODE":"US","OBJECT_ID":"2022-099AE","EPOCH":"2023-02-28T22:05:25.205568","MEAN_ELEMENT_THEORY":"SGP4","REF_FRAME":"TEME","INCLINATION":"97.6524","RA_OF_ASC_NODE":"182.5468","SITE":"AFWTR","PERIOD":"95.923","OBJECT_TYPE":"PAYLOAD","GP_ID":"227276341","MEAN_MOTION_DOT":"-0.00024376","TIME_SYSTEM":"UTC","LAUNCH_DATE":"2022-08-12","TLE_LINE1":"1 53493U 22099AE  23059.92043062 -.00024376  00000-0 -19025-2 0  9994","DECAY_DATE":null,"OBJECT_NAME":"STARLINK-4361","REV_AT_EPOCH":"3047","TLE_LINE2":"2 53493  97.6524 182.5468 0001381  74.1986 285.9391 15.01206063 30476","ELEMENT_SET_NO":"999","MEAN_MOTION":"15.01206063","SEMIMAJOR_AXIS":"6941.313"},{"EPOCH":"2023-02-28T22:13:04.603872","OBJECT_ID":"2022-099AF","COUNTRY_CODE":"US","NORAD_CAT_ID":"53494","OBJECT_TYPE":"PAYLOAD","GP_ID":"227276342","PERIOD":"95.921","SITE":"AFWTR","RA_OF_ASC_NODE":"182.5513","INCLINATION":"97.6503","REF_FRAME":"TEME","MEAN_ELEMENT_THEORY":"SGP4","DECAY_DATE":null,"OBJECT_NAME":"STARLINK-4340","REV_AT_EPOCH":"3047","TLE_LINE1":"1 53494U 22099AF  23059.92574773 -.00010735  00000-0 -83309-3 0  9994","LAUNCH_DATE":"2022-08-12","MEAN_MOTION_DOT":"-0.00010735","TIME_SYSTEM":"UTC","SEMIMAJOR_AXIS":"6941.238","MEAN_MOTION":"15.01230487","ELEMENT_SET_NO":"999","TLE_LINE2":"2 53494  97.6503 182.5513 0002421  87.1681 272.9820 15.01230487 30477","CENTER_NAME":"EARTH","RCS_SIZE":"LARGE","APOAPSIS":"564.783","ARG_OF_PERICENTER":"87.1681","MEAN_MOTION_DDOT":"0.0000000000000","PERIAPSIS":"561.422","CLASSIFICATION_TYPE":"U","ECCENTRICITY":"0.00024210","FILE":"3847880","MEAN_ANOMALY":"272.9820","BSTAR":"-0.00083309000000","EPHEMERIS_TYPE":"0"},{"PERIAPSIS":"562.000","CLASSIFICATION_TYPE":"U","APOAPSIS":"564.177","MEAN_MOTION_DDOT":"0.0000000000000","ARG_OF_PERICENTER":"93.7336","CENTER_NAME":"EARTH","RCS_SIZE":"LARGE","BSTAR":"-0.00016441000000","EPHEMERIS_TYPE":"0","FILE":"3847880","MEAN_ANOMALY":"266.4068","ECCENTRICITY":"0.00015680","RA_OF_ASC_NODE":"182.5432","MEAN_ELEMENT_THEORY":"SGP4","REF_FRAME":"TEME","INCLINATION":"97.6492","OBJECT_TYPE":"PAYLOAD","GP_ID":"227276352","SITE":"AFWTR","PERIOD":"95.921","COUNTRY_CODE":"US","OBJECT_ID":"2022-099AG","NORAD_CAT_ID":"53495","EPOCH":"2023-02-28T22:02:24.185472","ELEMENT_SET_NO":"999","TLE_LINE2":"2 53495  97.6492 182.5432 0001568  93.7336 266.4068 15.01235063 30484","SEMIMAJOR_AXIS":"6941.224","MEAN_MOTION":"15.01235063","TIME_SYSTEM":"UTC","MEAN_MOTION_DOT":"-0.00002169","LAUNCH_DATE":"2022-08-12","OBJECT_NAME":"STARLINK-4429","DECAY_DATE":null,"REV_AT_EPOCH":"3048","TLE_LINE1":"1 53495U 22099AG  23059.91833548 -.00002169  00000-0 -16441-3 0  9997"},{"OBJECT_TYPE":"PAYLOAD","GP_ID":"227276702","SITE":"AFWTR","PERIOD":"95.921","RA_OF_ASC_NODE":"182.5485","REF_FRAME":"TEME","MEAN_ELEMENT_THEORY":"SGP4","INCLINATION":"97.6474","EPOCH":"2023-02-28T22:07:44.171328","COUNTRY_CODE":"US","OBJECT_ID":"2022-099AH","NORAD_CAT_ID":"53496","SEMIMAJOR_AXIS":"6941.211","MEAN_MOTION":"15.01239036","ELEMENT_SET_NO":"999","TLE_LINE2":"2 53496  97.6474 182.5485 0002696  82.9310 277.2221 15.01239036 30472","OBJECT_NAME":"STARLINK-4465","DECAY_DATE":null,"REV_AT_EPOCH":"3047","TLE_LINE1":"1 53496U 22099AH  23059.92203902 -.00011232  00000-0 -87170-3 0  9992","MEAN_MOTION_DOT":"-0.00011232","TIME_SYSTEM":"UTC","LAUNCH_DATE":"2022-08-12","APOAPSIS":"564.948","MEAN_MOTION_DDOT":"0.0000000000000","ARG_OF_PERICENTER":"82.9310","PERIAPSIS":"561.205","CLASSIFICATION_TYPE":"U","CENTER_NAME":"EARTH","RCS_SIZE":"LARGE","BSTAR":"-0.00087170000000","EPHEMERIS_TYPE":"0","ECCENTRICITY":"0.00026960","FILE":"3847880","MEAN_ANOMALY":"277.2221"},{"BSTAR":"0.00018374000000","EPHEMERIS_TYPE":"0","FILE":"3847881","MEAN_ANOMALY":"67.5775","ECCENTRICITY":"0.00009830","PERIAPSIS":"562.377","CLASSIFICATION_TYPE":"U","APOAPSIS":"563.742","MEAN_MOTION_DDOT":"0.0000000000000","ARG_OF_PERICENTER":"292.5345","RCS_SIZE":"LARGE","CENTER_NAME":"EARTH","ELEMENT_SET_NO":"999","TLE_LINE2":"2 53497  97.6481 182.5417 0000983 292.5345  67.5775 15.01244615 30484","SEMIMAJOR_AXIS":"6941.194","MEAN_MOTION":"15.01244615","TIME_SYSTEM":"UTC","MEAN_MOTION_DOT":"0.00002301","LAUNCH_DATE":"2022-08-12","REV_AT_EPOCH":"3048","DECAY_DATE":null,"OBJECT_NAME":"STARLINK-4453","TLE_LINE1":"1 53497U 22099AJ  23059.91462777  .00002301  00000-0  18374-3 0  9994","RA_OF_ASC_NODE":"182.5417","REF_FRAME":"TEME","MEAN_ELEMENT_THEORY":"SGP4","INCLINATION":"97.6481","GP_ID":"227276355","OBJECT_TYPE":"PAYLOAD","SITE":"AFWTR","PERIOD":"95.920","COUNTRY_CODE":"US","OBJECT_ID":"2022-099AJ","NORAD_CAT_ID":"53497","EPOCH":"2023-02-28T21:57:03.839328"},{"TLE_LINE2":"2 53498  97.6488 182.5453 0001955  79.0805 281.0639 15.01240856 30475","ELEMENT_SET_NO":"999","MEAN_MOTION":"15.01240856","SEMIMAJOR_AXIS":"6941.206","LAUNCH_DATE":"2022-08-12","MEAN_MOTION_DOT":"-0.00008709","TIME_SYSTEM":"UTC","TLE_LINE1":"1 53498U 22099AK  23059.92018550 -.00008709  00000-0 -67464-3 0  9996","OBJECT_NAME":"STARLINK-4439","DECAY_DATE":null,"REV_AT_EPOCH":"3047","INCLINATION":"97.6488","MEAN_ELEMENT_THEORY":"SGP4","REF_FRAME":"TEME","RA_OF_ASC_NODE":"182.5453","PERIOD":"95.921","SITE":"AFWTR","GP_ID":"227276358","OBJECT_TYPE":"PAYLOAD","NORAD_CAT_ID":"53498","OBJECT_ID":"2022-099AK","COUNTRY_CODE":"US","EPOCH":"2023-02-28T22:05:04.027200","EPHEMERIS_TYPE":"0","BSTAR":"-0.00067464000000","MEAN_ANOMALY":"281.0639","FILE":"3847881","ECCENTRICITY":"0.00019550","CLASSIFICATION_TYPE":"U","PERIAPSIS":"561.714","ARG_OF_PERICENTER":"79.0805","MEAN_MOTION_DDOT":"0.0000000000000","APOAPSIS":"564.428","CENTER_NAME":"EARTH","RCS_SIZE":"MEDIUM"},{"INCLINATION":"97.6491","MEAN_ELEMENT_THEORY":"SGP4","REF_FRAME":"TEME","RA_OF_ASC_NODE":"182.5341","PERIOD":"95.920","SITE":"AFWTR","GP_ID":"227276710","OBJECT_TYPE":"PAYLOAD","NORAD_CAT_ID":"53499","OBJECT_ID":"2022-099AL","COUNTRY_CODE":"US","EPOCH":"2023-02-28T21:54:43.798752","TLE_LINE2":"2 53499  97.6491 182.5341 0000789 311.3794  48.7362 15.01248724 30472","ELEMENT_SET_NO":"999","MEAN_MOTION":"15.01248724","SEMIMAJOR_AXIS":"6941.182","LAUNCH_DATE":"2022-08-12","TIME_SYSTEM":"UTC","MEAN_MOTION_DOT":"-0.00010004","TLE_LINE1":"1 53499U 22099AL  23059.91300693 -.00010004  00000-0 -77561-3 0  9998","REV_AT_EPOCH":"3047","DECAY_DATE":null,"OBJECT_NAME":"STARLINK-4454","CLASSIFICATION_TYPE":"U","PERIAPSIS":"562.499","ARG_OF_PERICENTER":"311.3794","MEAN_MOTION_DDOT":"0.0000000000000","APOAPSIS":"563.594","CENTER_NAME":"EARTH","RCS_SIZE":"LARGE","EPHEMERIS_TYPE":"0","BSTAR":"-0.00077561000000","MEAN_ANOMALY":"48.7362","FILE":"3847881","ECCENTRICITY":"0.00007890"}];
